{"type": "FeatureCollection", "features": [ {"type": "Feature", "properties": {"norad_id": 32322, "name": "FENGYUN 1C DEB", "group": "fengyun-1c-debris", "lat": -54.050882703970096, "lon": -127.64980330974105, "alt_km": 1452.1909347566207, "timestamp": "2025-12-02T17:49:12.314091+00:00", "meta": {"OBJECT_NAME": "FENGYUN 1C DEB", "OBJECT_ID": "1999-025CXP", "EPOCH": "2025-11-27T22:55:02.013888", "MEAN_MOTION": 13.34099684, "ECCENTRICITY": 0.0418332, "INCLINATION": 98.3704, "RA_OF_ASC_NODE": 216.7072, "ARG_OF_PERICENTER": 134.9735, "MEAN_ANOMALY": 228.6119, "EPHEMERIS_TYPE": 0, "CLASSIFICATION_TYPE": "U", "NORAD_CAT_ID": 32322, "ELEMENT_SET_NO": 999, "REV_AT_EPOCH": 60182, "BSTAR": 0.00099996, "MEAN_MOTION_DOT": 7.86e-06, "MEAN_MOTION_DDOT": 0}, "tle": {"line1": "1 32322U 99025CXP 25331.95488442  .00000786  00000+0  99996-3 0  9990", "line2": "2 32322  98.3704 216.7072 0418332 134.9735 228.6119 13.34099684601826"}}, "geometry": {"type": "Point", "coordinates": [-127.64980330974105, -54.050882703970096]}}, {"type": "Feature", "properties": {"norad_id": 32323, "name": "FENGYUN 1C DEB", "group": "fengyun-1c-debris", "lat": 62.35007960643833, "lon": 103.88529109534568, "alt_km": 1013.5917859836527, "timestamp": "2025-12-02T17:49:12.314101+00:00", "meta": {"OBJECT_NAME": "FENGYUN 1C DEB", "OBJECT_ID": "1999-025CXQ", "EPOCH": "2025-11-27T08:31:37.777440", "MEAN_MOTION": 13.96310713, "ECCENTRICITY": 0.01563544, "INCLINATION": 98.5696, "RA_OF_ASC_NODE": 115.5941, "ARG_OF_PERICENTER": 252.8199, "MEAN_ANOMALY": 105.5797, "EPHEMERIS_TYPE": 0, "CLASSIFICATION_TYPE": "U", "NORAD_CAT_ID": 32323, "ELEMENT_SET_NO": 999, "REV_AT_EPOCH": 60055, "BSTAR": 0.00293216, "MEAN_MOTION_DOT": 4.437e-05, "MEAN_MOTION_DDOT": 0}, "tle": {"line1": "1 32323U 99025CXQ 25331.35529835  .00004437  00000+0  29322-2 0  9999", "line2": "2 32323  98.5696 115.5941 0156354 252.8199 105.5797 13.96310713600558"}}, "geometry": {"type": "Point", "coordinates": [103.88529109534568, 62.35007960643833]}}, {"type": "Feature", "properties": {"norad_id": 32324, "name": "FENGYUN 1C DEB", "group": "fengyun-1c-debris", "lat": 31.221755531762057, "lon": -96.23265843915078, "alt_km": 864.4591332487344, "timestamp": "2025-12-02T17:49:12.314110+00:00", "meta": {"OBJECT_NAME": "FENGYUN 1C DEB", "OBJECT_ID": "1999-025CXR", "EPOCH": "2025-12-01T05:20:15.314208", "MEAN_MOTION": 14.09115713, "ECCENTRICITY": 0.0050455, "INCLINATION": 99.5337, "RA_OF_ASC_NODE": 76.3137, "ARG_OF_PERICENTER": 55.9833, "MEAN_ANOMALY": 304.6112, "EPHEMERIS_TYPE": 0, "CLASSIFICATION_TYPE": "U", "NORAD_CAT_ID": 32324, "ELEMENT_SET_NO": 999, "REV_AT_EPOCH": 63836, "BSTAR": 0.00061368, "MEAN_MOTION_DOT": 1.029e-05, "MEAN_MOTION_DDOT": 0}, "tle": {"line1": "1 32324U 99025CXR 25335.22239947  .00001029  00000+0  61368-3 0  9993", "line2": "2 32324  99.5337  76.3137 0050455  55.9833 304.6112 14.09115713638366"}}, "geometry": {"type": "Point", "coordinates": [-96.23265843915078, 31.221755531762057]}}, {"type": "Feature", "properties": {"norad_id": 32326, "name": "FENGYUN 1C DEB", "group": "fengyun-1c-debris", "lat": 26.52286767089062, "lon": -96.99753831588674, "alt_km": 1211.2125582244716, "timestamp": "2025-12-02T17:49:12.314120+00:00", "meta": {"OBJECT_NAME": "FENGYUN 1C DEB", "OBJECT_ID": "1999-025CXT", "EPOCH": "2025-11-30T02:32:37.979232", "MEAN_MOTION": 13.69261307, "ECCENTRICITY": 0.03856265, "INCLINATION": 98.486, "RA_OF_ASC_NODE": 264.9459, "ARG_OF_PERICENTER": 173.0082, "MEAN_ANOMALY": 187.6669, "EPHEMERIS_TYPE": 0, "CLASSIFICATION_TYPE": "U", "NORAD_CAT_ID": 32326, "ELEMENT_SET_NO": 999, "REV_AT_EPOCH": 63009, "BSTAR": 0.00044957354, "MEAN_MOTION_DOT": 6.22e-06, "MEAN_MOTION_DDOT": 0}, "tle": {"line1": "1 32326U 99025CXT 25334.10599513  .00000622  00000+0  44957-3 0  9992", "line2": "2 32326  98.4860 264.9459 0385626 173.0082 187.6669 13.69261307630092"}}, "geometry": {"type": "Point", "coordinates": [-96.99753831588674, 26.52286767089062]}}, {"type": "Feature", "properties": {"norad_id": 32331, "name": "FENGYUN 1C DEB", "group": "fengyun-1c-debris", "lat": 49.756849064313926, "lon": -67.97751709032526, "alt_km": 656.4733261806923, "timestamp": "2025-12-02T17:49:12.314130+00:00", "meta": {"OBJECT_NAME": "FENGYUN 1C DEB", "OBJECT_ID": "1999-025CXY", "EPOCH": "2025-11-11T08:35:02.141088", "MEAN_MOTION": 14.68670701, "ECCENTRICITY": 0.0013407, "INCLINATION": 99.1837, "RA_OF_ASC_NODE": 279.0061, "ARG_OF_PERICENTER": 226.0291, "MEAN_ANOMALY": 133.9806, "EPHEMERIS_TYPE": 0, "CLASSIFICATION_TYPE": "U", "NORAD_CAT_ID": 32331, "ELEMENT_SET_NO": 999, "REV_AT_EPOCH": 60157, "BSTAR": 0.0092524, "MEAN_MOTION_DOT": 0.0005428, "MEAN_MOTION_DDOT": 0}, "tle": {"line1": "1 32331U 99025CXY 25315.35766367  .00054280  00000+0  92524-2 0  9998", "line2": "2 32331  99.1837 279.0061 0013407 226.0291 133.9806 14.68670701601572"}}, "geometry": {"type": "Point", "coordinates": [-67.97751709032526, 49.756849064313926]}}, {"type": "Feature", "properties": {"norad_id": 32332, "name": "FENGYUN 1C DEB", "group": "fengyun-1c-debris", "lat": -19.59013444449515, "lon": -152.4406791705049, "alt_km": 1067.1080895344667, "timestamp": "2025-12-02T17:49:12.314140+00:00", "meta": {"OBJECT_NAME": "FENGYUN 1C DEB", "OBJECT_ID": "1999-025CXZ", "EPOCH": "2025-11-29T21:49:05.913408", "MEAN_MOTION": 13.97030722, "ECCENTRICITY": 0.02850137, "INCLINATION": 99.1337, "RA_OF_ASC_NODE": 28.0232, "ARG_OF_PERICENTER": 348.1334, "MEAN_ANOMALY": 11.3206, "EPHEMERIS_TYPE": 0, "CLASSIFICATION_TYPE": "U", "NORAD_CAT_ID": 32332, "ELEMENT_SET_NO": 999, "REV_AT_EPOCH": 92857, "BSTAR": 0.0013397754, "MEAN_MOTION_DOT": 2.591e-05, "MEAN_MOTION_DDOT": 0}, "tle": {"line1": "1 32332U 99025CXZ 25333.90909622  .00002591  00000+0  13398-2 0  9993", "line2": "2 32332  99.1337  28.0232 0285013 348.1334  11.3206 13.97030722928577"}}, "geometry": {"type": "Point", "coordinates": [-152.4406791705049, -19.59013444449515]}}, {"type": "Feature", "properties": {"norad_id": 32334, "name": "FENGYUN 1C DEB", "group": "fengyun-1c-debris", "lat": -49.38480221419005, "lon": -159.94689608062845, "alt_km": 885.341375014541, "timestamp": "2025-12-02T17:49:12.314171+00:00", "meta": {"OBJECT_NAME": "FENGYUN 1C DEB", "OBJECT_ID": "1999-025CYB", "EPOCH": "2025-12-02T03:00:46.825344", "MEAN_MOTION": 14.01624263, "ECCENTRICITY": 0.00664079, "INCLINATION": 99.2542, "RA_OF_ASC_NODE": 30.3872, "ARG_OF_PERICENTER": 310.7393, "MEAN_ANOMALY": 48.8018, "EPHEMERIS_TYPE": 0, "CLASSIFICATION_TYPE": "U", "NORAD_CAT_ID": 32334, "ELEMENT_SET_NO": 999, "REV_AT_EPOCH": 93791, "BSTAR": 0.00038671814, "MEAN_MOTION_DOT": 5.5e-06, "MEAN_MOTION_DDOT": 0}, "tle": {"line1": "1 32334U 99025CYB 25336.12554196  .00000550  00000+0  38672-3 0  9990", "line2": "2 32334  99.2542  30.3872 0066407 310.7393  48.8018 14.01624263937917"}}, "geometry": {"type": "Point", "coordinates": [-159.94689608062845, -49.38480221419005]}}, {"type": "Feature", "properties": {"norad_id": 32340, "name": "FENGYUN 1C DEB", "group": "fengyun-1c-debris", "lat": 48.31837793288031, "lon": -28.76289897606297, "alt_km": 640.7552572906397, "timestamp": "2025-12-02T17:49:12.314181+00:00", "meta": {"OBJECT_NAME": "FENGYUN 1C DEB", "OBJECT_ID": "1999-025CYH", "EPOCH": "2025-11-29T19:32:37.057056", "MEAN_MOTION": 14.73935588, "ECCENTRICITY": 0.00353706, "INCLINATION": 98.9824, "RA_OF_ASC_NODE": 338.2288, "ARG_OF_PERICENTER": 335.3222, "MEAN_ANOMALY": 24.6289, "EPHEMERIS_TYPE": 0, "CLASSIFICATION_TYPE": "U", "NORAD_CAT_ID": 32340, "ELEMENT_SET_NO": 999, "REV_AT_EPOCH": 97006, "BSTAR": 0.0025622678, "MEAN_MOTION_DOT": 0.00016961, "MEAN_MOTION_DDOT": 0}, "tle": {"line1": "1 32340U 99025CYH 25333.81431779  .00016961  00000+0  25623-2 0  9995", "line2": "2 32340  98.9824 338.2288 0035370 335.3222  24.6289 14.73935588970062"}}, "geometry": {"type": "Point", "coordinates": [-28.76289897606297, 48.31837793288031]}}, {"type": "Feature", "properties": {"norad_id": 32342, "name": "FENGYUN 1C DEB", "group": "fengyun-1c-debris", "lat": 14.672182970762977, "lon": 167.94811370154108, "alt_km": 853.3953417780913, "timestamp": "2025-12-02T17:49:12.314192+00:00", "meta": {"OBJECT_NAME": "FENGYUN 1C DEB", "OBJECT_ID": "1999-025CYK", "EPOCH": "2025-12-02T12:40:52.863168", "MEAN_MOTION": 14.13392022, "ECCENTRICITY": 0.0008053, "INCLINATION": 98.6709, "RA_OF_ASC_NODE": 345.4508, "ARG_OF_PERICENTER": 20.2133, "MEAN_ANOMALY": 135.9314, "EPHEMERIS_TYPE": 0, "CLASSIFICATION_TYPE": "U", "NORAD_CAT_ID": 32342, "ELEMENT_SET_NO": 999, "REV_AT_EPOCH": 93573, "BSTAR": 0.00014315, "MEAN_MOTION_DOT": 2.26e-06, "MEAN_MOTION_DDOT": 0}, "tle": {"line1": "1 32342U 99025CYK 25336.52838962  .00000226  00000+0  14315-3 0  9997", "line2": "2 32342  98.6709 345.4508 0008053  20.2133 135.9314 14.13392022935731"}}, "geometry": {"type": "Point", "coordinates": [167.94811370154108, 14.672182970762977]}}, {"type": "Feature", "properties": {"norad_id": 32343, "name": "FENGYUN 1C DEB", "group": "fengyun-1c-debris", "lat": 70.04727048905703, "lon": 168.43873124631247, "alt_km": 745.8324337574786, "timestamp": "2025-12-02T17:49:12.314202+00:00", "meta": {"OBJECT_NAME": "FENGYUN 1C DEB", "OBJECT_ID": "1999-025CYL", "EPOCH": "2025-11-23T04:58:45.910848", "MEAN_MOTION": 14.1981282, "ECCENTRICITY": 0.01511129, "INCLINATION": 98.6065, "RA_OF_ASC_NODE": 314.5087, "ARG_OF_PERICENTER": 183.896, "MEAN_ANOMALY": 176.1052, "EPHEMERIS_TYPE": 0, "CLASSIFICATION_TYPE": "U", "NORAD_CAT_ID": 32343, "ELEMENT_SET_NO": 999, "REV_AT_EPOCH": 64436, "BSTAR": 0.00029765257, "MEAN_MOTION_DOT": 6.65e-06, "MEAN_MOTION_DDOT": 0}, "tle": {"line1": "1 32343U 99025CYL 25327.20747582  .00000665  00000+0  29765-3 0  9992", "line2": "2 32343  98.6065 314.5087 0151112 183.8960 176.1052 14.19812820644366"}}, "geometry": {"type": "Point", "coordinates": [168.43873124631247, 70.04727048905703]}}]}